STARLINK-36092          
1 66869U 25281X   25356.25002315 -.01994195  00000+0 -20469-1 0  9993
2 66869  43.0003  64.2259 0001225 267.3435  66.6584 15.67250532  2952
STARLINK-36114          
1 66870U 25281Y   25356.25002315 -.01986529  00000+0 -20380-1 0  9999
2 66870  43.0004  64.2205 0001452 270.9009  65.0177 15.67247098  2825
STARLINK-36095          
1 66871U 25281Z   25356.25002315 -.01985297  00000+0 -20367-1 0  9996
2 66871  43.0002  64.2160 0001345 271.1632  66.6710 15.67246741  2958
STARLINK-36082          
1 66872U 25281AA  25356.25002315 -.01992651  00000+0 -20451-1 0  9993
2 66872  43.0003  64.2109 0001321 270.2701  69.4845 15.67249005  2826
STARLINK-36128          
1 66873U 25281AB  25356.25002315 -.02001211  00000+0 -20547-1 0  9994
2 66873  43.0008  64.1960 0001328 270.4521  75.0536 15.67254072  2959
STARLINK-36129          
1 66874U 25281AC  25356.25002315 -.01998347  00000+0 -20516-1 0  9995
2 66874  43.0005  64.2058 0001341 269.9997  71.6747 15.67251008  2953
STARLINK-36053          
1 66875U 25281AD  25356.25002315 -.01992636  00000+0 -20451-1 0  9999
2 66875  43.0006  64.1903 0001312 271.8167  75.6063 15.67248820  2955
STARLINK-35702          
1 66876U 25281AE  25356.25002315 -.01995008  00000+0 -20477-1 0  9994
2 66876  43.0005  64.2010 0001344 272.2894  71.2973 15.67251349  2954
ZQ-3 R/B                
1 66877U 25282A   25356.27223215  .01095592  78160-5  19233-3 0  9997
2 66877  56.9486  20.6424 0699025 236.7311 116.4873 14.78845817  2797
STARLINK-35866          
1 66878U 25283A   25356.25002315 -.01827765  00000+0 -14071-1 0  9995
2 66878  53.1579  26.2208 0001098  77.5334 327.1254 15.74503746  3957
STARLINK-35749          
1 66879U 25283B   25356.25002315 -.01792582  00000+0 -13781-1 0  9991
2 66879  53.1580  26.2126 0000860  65.5807 342.9196 15.74473783  3954
STARLINK-35844          
1 66880U 25283C   25356.25002315 -.01810019  00000+0 -13925-1 0  9999
2 66880  53.1581  26.2169 0001164  83.1100 323.4761 15.74486078  3957
