CCSDS_OMM_VERS = 2.0
CREATION_DATE  = 
ORIGINATOR     = 

OBJECT_NAME    = STARLINK-36092
OBJECT_ID      = 2025-281X
CENTER_NAME    = EARTH
REF_FRAME      = TEME
TIME_SYSTEM    = UTC
MEAN_ELEMENT_THEORY = SGP/SGP4

EPOCH          = 2025-12-22T06:00:02.000160
MEAN_MOTION    = 15.67250532
ECCENTRICITY   = .00012259
INCLINATION    = 43.0003
RA_OF_ASC_NODE = 64.2259
ARG_OF_PERICENTER = 267.3435
MEAN_ANOMALY   = 66.6584

EPHEMERIS_TYPE = 0
CLASSIFICATION_TYPE = U
NORAD_CAT_ID   = 66869
ELEMENT_SET_NO = 999
REV_AT_EPOCH   = 295
BSTAR          = -.20468914E-1
MEAN_MOTION_DOT = -.1994195E-1
MEAN_MOTION_DDOT = 0

CCSDS_OMM_VERS = 2.0
CREATION_DATE  = 
ORIGINATOR     = 

OBJECT_NAME    = STARLINK-36114
OBJECT_ID      = 2025-281Y
CENTER_NAME    = EARTH
REF_FRAME      = TEME
TIME_SYSTEM    = UTC
MEAN_ELEMENT_THEORY = SGP/SGP4

EPOCH          = 2025-12-22T06:00:02.000160
MEAN_MOTION    = 15.67247098
ECCENTRICITY   = .00014522
INCLINATION    = 43.0004
RA_OF_ASC_NODE = 64.2205
ARG_OF_PERICENTER = 270.9009
MEAN_ANOMALY   = 65.0177

EPHEMERIS_TYPE = 0
CLASSIFICATION_TYPE = U
NORAD_CAT_ID   = 66870
ELEMENT_SET_NO = 999
REV_AT_EPOCH   = 282
BSTAR          = -.20380319E-1
MEAN_MOTION_DOT = -.1986529E-1
MEAN_MOTION_DDOT = 0

CCSDS_OMM_VERS = 2.0
CREATION_DATE  = 
ORIGINATOR     = 

OBJECT_NAME    = STARLINK-36095
OBJECT_ID      = 2025-281Z
CENTER_NAME    = EARTH
REF_FRAME      = TEME
TIME_SYSTEM    = UTC
MEAN_ELEMENT_THEORY = SGP/SGP4

EPOCH          = 2025-12-22T06:00:02.000160
MEAN_MOTION    = 15.67246741
ECCENTRICITY   = .00013459
INCLINATION    = 43.0002
RA_OF_ASC_NODE = 64.2160
ARG_OF_PERICENTER = 271.1632
MEAN_ANOMALY   = 66.6710

EPHEMERIS_TYPE = 0
CLASSIFICATION_TYPE = U
NORAD_CAT_ID   = 66871
ELEMENT_SET_NO = 999
REV_AT_EPOCH   = 295
BSTAR          = -.20367213E-1
MEAN_MOTION_DOT = -.1985297E-1
MEAN_MOTION_DDOT = 0

CCSDS_OMM_VERS = 2.0
CREATION_DATE  = 
ORIGINATOR     = 

OBJECT_NAME    = STARLINK-36082
OBJECT_ID      = 2025-281AA
CENTER_NAME    = EARTH
REF_FRAME      = TEME
TIME_SYSTEM    = UTC
MEAN_ELEMENT_THEORY = SGP/SGP4

EPOCH          = 2025-12-22T06:00:02.000160
MEAN_MOTION    = 15.67249005
ECCENTRICITY   = .00013214
INCLINATION    = 43.0003
RA_OF_ASC_NODE = 64.2109
ARG_OF_PERICENTER = 270.2701
MEAN_ANOMALY   = 69.4845

EPHEMERIS_TYPE = 0
CLASSIFICATION_TYPE = U
NORAD_CAT_ID   = 66872
ELEMENT_SET_NO = 999
REV_AT_EPOCH   = 282
BSTAR          = -.20451311E-1
MEAN_MOTION_DOT = -.1992651E-1
MEAN_MOTION_DDOT = 0

CCSDS_OMM_VERS = 2.0
CREATION_DATE  = 
ORIGINATOR     = 

OBJECT_NAME    = STARLINK-36128
OBJECT_ID      = 2025-281AB
CENTER_NAME    = EARTH
REF_FRAME      = TEME
TIME_SYSTEM    = UTC
MEAN_ELEMENT_THEORY = SGP/SGP4

EPOCH          = 2025-12-22T06:00:02.000160
MEAN_MOTION    = 15.67254072
ECCENTRICITY   = .00013286
INCLINATION    = 43.0008
RA_OF_ASC_NODE = 64.1960
ARG_OF_PERICENTER = 270.4521
MEAN_ANOMALY   = 75.0536

EPHEMERIS_TYPE = 0
CLASSIFICATION_TYPE = U
NORAD_CAT_ID   = 66873
ELEMENT_SET_NO = 999
REV_AT_EPOCH   = 295
BSTAR          = -.20546933E-1
MEAN_MOTION_DOT = -.2001211E-1
MEAN_MOTION_DDOT = 0

CCSDS_OMM_VERS = 2.0
CREATION_DATE  = 
ORIGINATOR     = 

OBJECT_NAME    = STARLINK-36129
OBJECT_ID      = 2025-281AC
CENTER_NAME    = EARTH
REF_FRAME      = TEME
TIME_SYSTEM    = UTC
MEAN_ELEMENT_THEORY = SGP/SGP4

EPOCH          = 2025-12-22T06:00:02.000160
MEAN_MOTION    = 15.67251008
ECCENTRICITY   = .00013416
INCLINATION    = 43.0005
RA_OF_ASC_NODE = 64.2058
ARG_OF_PERICENTER = 269.9997
MEAN_ANOMALY   = 71.6747

EPHEMERIS_TYPE = 0
CLASSIFICATION_TYPE = U
NORAD_CAT_ID   = 66874
ELEMENT_SET_NO = 999
REV_AT_EPOCH   = 295
BSTAR          = -.20515949E-1
MEAN_MOTION_DOT = -.1998347E-1
MEAN_MOTION_DDOT = 0

CCSDS_OMM_VERS = 2.0
CREATION_DATE  = 
ORIGINATOR     = 

OBJECT_NAME    = STARLINK-36053
OBJECT_ID      = 2025-281AD
CENTER_NAME    = EARTH
REF_FRAME      = TEME
TIME_SYSTEM    = UTC
MEAN_ELEMENT_THEORY = SGP/SGP4

EPOCH          = 2025-12-22T06:00:02.000160
MEAN_MOTION    = 15.67248820
ECCENTRICITY   = .00013123
INCLINATION    = 43.0006
RA_OF_ASC_NODE = 64.1903
ARG_OF_PERICENTER = 271.8167
MEAN_ANOMALY   = 75.6063

EPHEMERIS_TYPE = 0
CLASSIFICATION_TYPE = U
NORAD_CAT_ID   = 66875
ELEMENT_SET_NO = 999
REV_AT_EPOCH   = 295
BSTAR          = -.20451378E-1
MEAN_MOTION_DOT = -.1992636E-1
MEAN_MOTION_DDOT = 0

CCSDS_OMM_VERS = 2.0
CREATION_DATE  = 
ORIGINATOR     = 

OBJECT_NAME    = STARLINK-35702
OBJECT_ID      = 2025-281AE
CENTER_NAME    = EARTH
REF_FRAME      = TEME
TIME_SYSTEM    = UTC
MEAN_ELEMENT_THEORY = SGP/SGP4

EPOCH          = 2025-12-22T06:00:02.000160
MEAN_MOTION    = 15.67251349
ECCENTRICITY   = .00013449
INCLINATION    = 43.0005
RA_OF_ASC_NODE = 64.2010
ARG_OF_PERICENTER = 272.2894
MEAN_ANOMALY   = 71.2973

EPHEMERIS_TYPE = 0
CLASSIFICATION_TYPE = U
NORAD_CAT_ID   = 66876
ELEMENT_SET_NO = 999
REV_AT_EPOCH   = 295
BSTAR          = -.20476645E-1
MEAN_MOTION_DOT = -.1995008E-1
MEAN_MOTION_DDOT = 0

CCSDS_OMM_VERS = 2.0
CREATION_DATE  = 
ORIGINATOR     = 

OBJECT_NAME    = ZQ-3 R/B
OBJECT_ID      = 2025-282A
CENTER_NAME    = EARTH
REF_FRAME      = TEME
TIME_SYSTEM    = UTC
MEAN_ELEMENT_THEORY = SGP/SGP4

EPOCH          = 2025-12-22T06:32:00.857760
MEAN_MOTION    = 14.78845817
ECCENTRICITY   = .06990257
INCLINATION    = 56.9486
RA_OF_ASC_NODE = 20.6424
ARG_OF_PERICENTER = 236.7311
MEAN_ANOMALY   = 116.4873

EPHEMERIS_TYPE = 0
CLASSIFICATION_TYPE = U
NORAD_CAT_ID   = 66877
ELEMENT_SET_NO = 999
REV_AT_EPOCH   = 279
BSTAR          = .19233159E-3
MEAN_MOTION_DOT = .1095592E-1
MEAN_MOTION_DDOT = .7816011E-5

CCSDS_OMM_VERS = 2.0
CREATION_DATE  = 
ORIGINATOR     = 

OBJECT_NAME    = STARLINK-35866
OBJECT_ID      = 2025-283A
CENTER_NAME    = EARTH
REF_FRAME      = TEME
TIME_SYSTEM    = UTC
MEAN_ELEMENT_THEORY = SGP/SGP4

EPOCH          = 2025-12-22T06:00:02.000160
MEAN_MOTION    = 15.74503746
ECCENTRICITY   = .00010987
INCLINATION    = 53.1579
RA_OF_ASC_NODE = 26.2208
ARG_OF_PERICENTER = 77.5334
MEAN_ANOMALY   = 327.1254

EPHEMERIS_TYPE = 0
CLASSIFICATION_TYPE = U
NORAD_CAT_ID   = 66878
ELEMENT_SET_NO = 999
REV_AT_EPOCH   = 395
BSTAR          = -.14070761E-1
MEAN_MOTION_DOT = -.1827765E-1
MEAN_MOTION_DDOT = 0

CCSDS_OMM_VERS = 2.0
CREATION_DATE  = 
ORIGINATOR     = 

OBJECT_NAME    = STARLINK-35749
OBJECT_ID      = 2025-283B
CENTER_NAME    = EARTH
REF_FRAME      = TEME
TIME_SYSTEM    = UTC
MEAN_ELEMENT_THEORY = SGP/SGP4

EPOCH          = 2025-12-22T06:00:02.000160
MEAN_MOTION    = 15.74473783
ECCENTRICITY   = .00008606
INCLINATION    = 53.1580
RA_OF_ASC_NODE = 26.2126
ARG_OF_PERICENTER = 65.5807
MEAN_ANOMALY   = 342.9196

EPHEMERIS_TYPE = 0
CLASSIFICATION_TYPE = U
NORAD_CAT_ID   = 66879
ELEMENT_SET_NO = 999
REV_AT_EPOCH   = 395
BSTAR          = -.13780747E-1
MEAN_MOTION_DOT = -.1792582E-1
MEAN_MOTION_DDOT = 0

CCSDS_OMM_VERS = 2.0
CREATION_DATE  = 
ORIGINATOR     = 

OBJECT_NAME    = STARLINK-35844
OBJECT_ID      = 2025-283C
CENTER_NAME    = EARTH
REF_FRAME      = TEME
TIME_SYSTEM    = UTC
MEAN_ELEMENT_THEORY = SGP/SGP4

EPOCH          = 2025-12-22T06:00:02.000160
MEAN_MOTION    = 15.74486078
ECCENTRICITY   = .00011648
INCLINATION    = 53.1581
RA_OF_ASC_NODE = 26.2169
ARG_OF_PERICENTER = 83.1100
MEAN_ANOMALY   = 323.4761

EPHEMERIS_TYPE = 0
CLASSIFICATION_TYPE = U
NORAD_CAT_ID   = 66880
ELEMENT_SET_NO = 999
REV_AT_EPOCH   = 395
BSTAR          = -.13924629E-1
MEAN_MOTION_DOT = -.1810019E-1
MEAN_MOTION_DDOT = 0

